FENGYUN-4B
1 48808U 21047A   25212.92577363 -.00000322  00000-0  00000+0 0  9993
2 48808   0.1068  79.5928 0003509 250.7020  57.4255  1.00267533 15346
TUBIN
1 48900U 21059X   25213.17193910  .00048358  00000-0  49501-3 0  9992
2 48900  97.6776  26.8482 0002909  47.6609 312.4895 15.64863146228252
LEDSAT
1 49069U 21073D   25213.21583873  .00100969  00000-0  90101-3 0  9990
2 49069  97.3848 297.2114 0008738 232.0445 128.0027 15.68060854219668
CUTE-LASP
1 49263U 21088D   25212.78399783  .00016042  00000-0  29471-3 0  9998
2 49263  97.4473 290.6236 0007839  57.7247 302.4762 15.49289693212507
JILIN-01 GAOFEN 2F
1 49338U 21097A   25213.13984947  .00004396  34631-8  31574-3 0  9994
2 49338  97.6353 336.7143 0018655 232.3113 127.6422 15.04213278202785
TEIKYOSAT-4 (OORURI)
1 49396U 21102B   25213.17985708  .00002617  00000-0  17462-3 0  9994
2 49396  97.4074 249.7065 0011290 318.6307  41.4065 15.07830338204473
Z-SAT
1 49399U 21102E   25213.14136934  .00004313  00000-0  23519-3 0  9998
2 49399  97.3770 253.0956 0016222 282.6527  77.2891 15.14781371204934
KOSEN-1
1 49402U 21102H   25213.11845777  .00007008  00000-0  31937-3 0  9999
2 49402  97.3674 256.8921 0014077 252.4038 107.5660 15.20881014205274
CAMSAT XW-3 (CAS-9)
1 50466U 21131B   25213.19116911  .00000485  00000-0  16507-3 0  9990
2 50466  98.5102 302.2877 0003757 356.0117   4.1041 14.40865603189029
SICH-2-1 (SICH-2-30)
1 51030U 22002AY  25213.21878792  .00103583  00000-0  73689-3 0  9998
2 51030  97.3291 292.4250 0001940 300.2939  59.8133 15.73552526197788
VZLUSAT-2
1 51085U 22002DF  25213.16622383  .00058365  00000-0  67477-3 0  9990
2 51085  97.3283 287.6918 0003780  12.2351 347.8998 15.61691585197479
INSPIRESAT-1
1 51657U 22013B   25213.04786730  .00031924  00000-0  61352-3 0  9999
2 51657  97.4859 244.3567 0007753 134.0625 226.1265 15.47852564192498
GOES-18
1 51850U 22021A   25212.94908707  .00000104  00000-0  00000+0 0  9996
2 51850   0.0024 244.4458 0000412 295.5272 334.4916  1.00273072 12596
MERIDIAN-10
1 52145U 22030A   25211.94591789  .00000238  00000-0  00000-0 0  9990
2 52145  62.6606 174.6426 6741959 273.3226  17.8055  2.00600041 24589
BRO-6
1 52422U 22047AE  25213.16493020  .00011123  00000-0  31095-3 0  9997
2 52422  97.3628 296.4933 0006433 137.7472 222.4269 15.36832450181818
CONNECTA-T1
1 52739U 22057H   25212.81044028  .00050338  00000-0  69479-3 0  9998
2 52739  97.6157 355.8581 0004691 140.5791 219.5806 15.57026019177243
PLATFORM-1
1 52770U 22057AQ  25212.79089196  .00118547  00000-0  79963-3 0  9991
2 52770  97.6088   1.5294 0003004 136.4326 223.7175 15.74747011177654
STEP CUBELAB-II
1 52897U 22065D   25213.17413603  .00000945  00000-0  19603-3 0  9994
2 52897  98.1778 354.1182 0007683 313.8013  46.2552 14.62450824164719
RANDEV
1 52898U 22065E   25213.18522695  .00000996  00000-0  20452-3 0  9998
2 52898  98.1766 354.3491 0007015 315.5132  44.5505 14.62772431164453
SNUGLITE-II
1 52899U 22065F   25213.14356266  .00001150  00000-0  23198-3 0  9997
2 52899  98.1755 354.6267 0006590 315.5600  44.5072 14.63315307164177
MIMAN
1 52900U 22065G   25212.85919250  .00000642  00000-0  13976-3 0  9993
2 52900  98.1800 352.9704 0006641 314.5984  45.4674 14.61225702163656
GREENCUBE (IO-117)
1 53106U 22080B   25051.21822557 -.00000003  00000-0  00000 0 0  9995
2 53106  70.1434 106.3440 0008542  48.0089 312.1297  6.42557744 61200
ROBUSTA 1F (MTCUBE-2)
1 53109U 22080E   25212.88457727 -.00000003  00000-0  00000-0 0  9994
2 53109  70.1401  49.6228 0008534 359.3104   0.7543  6.42583857 71486
BLUEWALKER-3
1 53807U 22111AL  25213.06418590  .00006974  00000-0  22270-3 0  9998
2 53807  53.2319  91.8387 0005433 270.4921  89.5460 15.33615604161008
ELEKTRO-L4
1 55506U 23016A   25211.68244791 -.00000055  00000-0  00000-0 0  9996
2 55506   0.0586 191.0698 0001550   2.0761 166.8380  1.00271684  9115
SHARJAHSAT-1
1 55104U 23001CZ  25213.13979934  .00012409  00000-0  35906-3 0  9991
2 55104  97.3673 274.7283 0008111 169.5696 190.5718 15.35713863143166
METEOR M2-3
1 57166U 23091A   25213.19025959 -.00000006  00000-0  16285-4 0  9996
2 57166  98.6580 268.9023 0004457  35.2153 324.9320 14.24005377108973
STRATOSAT-TK1 (RS52S)
1 57167U 23091B   25213.21059787  .00049600  00000-0  10893-2 0  9995
2 57167  97.5485 278.5336 0008839 122.4270 237.7834 15.43836329116125
RESHUCUBE-2 (RS37S)
1 57168U 23091C   25213.19855541  .00007940  00000-0  37880-3 0  9992
2 57168  97.5523 269.8239 0014401 142.8631 217.3603 15.19261293115552
RASSVET 1-1
1 57169U 23091D   25213.15326546  .00008013  00000-0  39854-3 0  9992
2 57169  97.5583 269.6096 0013099 134.5776 225.6529 15.17822452115511
RASSVET 1-2
1 57170U 23091E   25213.15340406  .00008017  00000-0  39888-3 0  9996
2 57170  97.5589 269.6644 0011995 126.7891 233.4445 15.17822900115514
RASSVET 1-3
1 57171U 23091F   25213.15300063  .00008053  00000-0  40039-3 0  9992
2 57171  97.5585 269.6309 0013766 144.2132 216.0026 15.17822616115516
UMKA-1 (RS40S)
1 57172U 23091G   25213.16094377  .00006620  00000-0  34867-3 0  9992
2 57172  97.5546 268.2755 0015269 147.9870 212.2293 15.15846392115444
SATURN (RS43S)
1 57174U 23091J   25213.17995910  .00003758  00000-0  22965-3 0  9993
2 57174  97.5551 265.5758 0014682 164.7286 195.4390 15.10796644115260
CUBEBEL-2 (EU11S)
1 57175U 23091K   25213.17971128  .00010719  00000-0  49766-3 0  9992
2 57175  97.5543 269.7718 0012853 153.4725 206.7170 15.20130721115547
SITRO-AIS-5 (ANOKHIN)
1 57176U 23091L   25213.21519775  .00010156  00000-0  46541-3 0  9997
2 57176  97.5548 270.2666 0015016 142.5422 217.6863 15.20567032115571
ZORKIY-2M
1 57177U 23091M   25213.17406875  .00006596  00000-0  35056-3 0  9991
2 57177  97.5582 268.4788 0015994 144.9795 215.2493 15.15515824115443
CUBESX-HSE-3 (RS42S)
1 57178U 23091N   25213.21341952  .00010690  00000-0  47535-3 0  9996
2 57178  97.5575 271.1562 0014600 135.5514 224.6896 15.21590825115616
PHI-DEMO
1 57181U 23091R   25213.16014263  .00004655  00000-0  27737-3 0  9992
2 57181  97.5559 266.0550 0016944 156.6637 203.5365 15.11564399115292
MONITOR-3 (RS58S)
1 57180U 23091Q   25213.16781995  .00010134  00000-0  47445-3 0  9991
2 57180  97.5570 270.2357 0015181 138.5176 221.7213 15.19827327115559
NORBY-2
1 57179U 23091P   25213.18080350  .00004693  00000-0  26901-3 0  9995
2 57179  97.5589 267.1636 0017014 147.5914 212.6365 15.12958988115344
MONITOR-4 (RS57S)
1 57182U 23091S   25213.16252946  .00009985  00000-0  46680-3 0  9994
2 57182  97.5565 270.1887 0015194 139.0008 221.2372 15.19879966115553
MONITOR-2 (RS39S)
1 57184U 23091U   25213.19690728  .00004796  00000-0  26141-3 0  9998
2 57184  97.5571 268.5224 0013452 138.2680 221.9581 15.14798098115448
SVYATOBOR-1 (RS60S)
1 57187U 23091X   25213.14241485  .00008060  00000-0  38091-3 0  9993
2 57187  97.5574 270.9052 0012326 129.8513 230.3808 15.19607107115597
VIZARD-METEO (RS38S)
1 57189U 23091Z   25213.19051350  .00012840  00000-0  52408-3 0  9999
2 57189  97.5561 273.2107 0010764 122.0050 238.2234 15.24495735115753
NANOZOND-1 (RS49S)
1 57190U 23091AA  25213.13001145  .00030631  00000-0  81626-3 0  9994
2 57190  97.5512 278.0678 0007538 115.5805 244.6219 15.38092688116083
SITRO-AIS-6 (CHIRKIN)
1 57192U 23091AC  25213.14015268  .00009473  00000-0  43571-3 0  9995
2 57192  97.5545 270.1925 0014952 142.5806 217.6473 15.20463034115560
SITRO-AIS-8 (SHCHUKIN)
1 57193U 23091AD  25213.19501308  .00011474  00000-0  50432-3 0  9994
2 57193  97.5541 270.8674 0014333 141.8313 218.3940 15.21972027115614
SITRO-AIS-7 (SHEFFER)
1 57194U 23091AE  25213.16532379  .00010728  00000-0  49443-3 0  9995
2 57194  97.5545 270.1480 0014726 143.1642 217.0608 15.20359102115566
AVION KALUGA 650
1 57195U 23091AF  25213.16393705  .00006272  00000-0  33207-3 0  9994
2 57195  97.5584 269.1478 0012669 137.9203 222.3004 15.15716478115479
SITRO-AIS-10 (KATYS)
1 57199U 23091AK  25213.18925677  .00014043  00000-0  55605-3 0  9990
2 57199  97.5555 273.4701 0010436 125.3794 234.8420 15.25496041115779
SITRO-AIS-9 (BURDAEV)
1 57201U 23091AM  25213.14807817  .00012982  00000-0  51743-3 0  9994
2 57201  97.5551 273.3241 0010487 125.7317 234.4898 15.25294732115765
UTMN-2 (RS27S)
1 57203U 23091AP  25213.16287705  .00011309  00000-0  48850-3 0  9993
2 57203  97.5564 272.3223 0011379 124.2225 236.0090 15.22603646115692
SITRO-AIS-12 (FARTUSHNY)
1 57204U 23091AQ  25213.18876958  .00013806  00000-0  54666-3 0  9996
2 57204  97.5561 273.6704 0010372 120.1186 240.1081 15.25500316115780
ARCCUBE-1 (RS25S)
1 57205U 23091AR  25213.15312969  .00063097  00000-0  11109-2 0  9992
2 57205  97.5419 281.0381 0005514 114.4972 245.6854 15.50224349116302
AHMAT-1 (RS41S)
1 57206U 23091AS  25213.14300743  .00022081  00000-0  70121-3 0  9997
2 57206  97.5517 276.1416 0008664 120.8722 239.3373 15.32633932115968
SITRO-AIS-11 (SMIRENNY)
1 57208U 23091AU  25213.20015356  .00013825  00000-0  54394-3 0  9999
2 57208  97.5558 273.7857 0010243 120.1805 240.0449 15.25715448115797
KUZGTU-1 (RS47S)
1 57217U 23091AV  25213.19574049  .00009973  00000-0  45227-3 0  9990
2 57217  97.5548 270.6238 0014608 137.6762 222.5603 15.20935916115593
STRATOSAT-TK1-A (RS45S)
1 57322U 23091AW  25213.13982257  .02039779  38170-2  22494-2 0  9995
2 57322  97.5219 286.7767 0011555 254.7275 105.2731 16.10489106114535
STRATOSAT-TK1-E (RS52SE)
1 57323U 23091AX  25213.21624962  .00028940  00000-0  83372-3 0  9999
2 57323  97.5517 276.1377 0010839 126.4757 233.7487 15.35644942113846
STRATOSAT-TK1-B (RS52SB)
1 57324U 23091AY  25213.12987921  .01325165  10067-2  22111-2 0  9996
2 57324  97.5351 286.5117 0010153 254.3240 105.6919 16.03074608114511
STRATOSAT-TK1-D (RS52SD)
1 57326U 23091BA  25213.15525386  .00027450  00000-0  81496-3 0  9995
2 57326  97.5510 275.7153 0010894 127.8543 232.3687 15.34708376113655
STRATOSAT-TK1-V (RS52SV)
1 57327U 23091BB  25213.10138713  .01867375  28182-2  22145-2 0  9992
2 57327  97.5259 286.7388 0010973 259.4374 100.5673 16.09113813114369
